stk.v.4.0
BEGIN Ephemeris
 EphemerisName     Voyager_1.a54206u_V0.2_merged
 ScenarioEpoch     20 Dec 1980 04:45:19
 Duration          1837.301854
 Step              60.0
 Interpolation      Lagrange
 InterpolationOrder 5
 CentralBody        Earth
 CoordinateSystem    J2000
 EphemerisTimePosVel
